TIANMU-1 08             
1 57400U 23101B   26066.00237819  .00000346  00000+0  14775-4 0  9993
2 57400  97.2717 118.7901 0006380 134.2174 225.9592 15.29204229146020
STARLINK-30966          
1 58454U 23183T   26068.28514043  .00001471  00000+0  62947-4 0  9996
2 58454  43.0015  43.7959 0001602 275.5141  84.5528 15.27588736126678
